NORAD_CAT_ID,OBJECT_NAME,OBJECT_TYPE,EPOCH,MEAN_MOTION,ECCENTRICITY,INCLINATION,RA_OF_ASC_NODE,ARG_OF_PERICENTER,MEAN_ANOMALY,BSTAR,MEAN_MOTION_DOT,MEAN_MOTION_DDOT,TLE_LINE0,TLE_LINE1,TLE_LINE2,SEMIMAJOR_AXIS,PERIOD,APOGEE,PERIGEE,DECAYED
49766.0,STARLINK-3190,PAYLOAD,2023-04-24 19:35:03,15.08879457,0.0001273,53.2137,172.1926,92.1432,267.9705,0.001016,0.00015936,0.0,0 STARLINK-3190,1 49766U 21115AU  23114.81601481  .00015936  00000-0  10160-2 0  9996,2 49766  53.2137 172.1926 0001273  92.1432 267.9705 15.08879457 78293,6917.76,95.435,540.505,538.744,0.0
49766.0,STARLINK-3190,PAYLOAD,2023-04-25 09:53:32,15.08826622,0.0001479,53.2151,169.5158,69.9699,290.1452,-0.0004296,-7.116e-05,0.0,0 STARLINK-3190,1 49766U 21115AU  23115.41218484 -.00007116  00000-0 -42960-3 0  9997,2 49766  53.2151 169.5158 0001479  69.9699 290.1452 15.08826622 78384,6917.921,95.438,540.809,538.763,0.0
49766.0,STARLINK-3190,PAYLOAD,2023-04-26 09:44:19,15.088638,0.0001662,53.215,165.0606,51.4897,308.6244,-0.00083245,-0.00013521,0.0,0 STARLINK-3190,1 49766U 21115AU  23116.40577840 -.00013521  00000-0 -83245-3 0  9999,2 49766  53.2150 165.0606 0001662  51.4897 308.6244 15.08863800 77429,6917.808,95.436,540.822,538.523,0.0
49766.0,STARLINK-3190,PAYLOAD,2023-04-26 14:30:28,15.0886083,0.0001961,53.2152,164.1653,88.2808,271.8409,-0.0005543,-9.104e-05,0.0,0 STARLINK-3190,1 49766U 21115AU  23116.60449773 -.00009104  00000-0 -55430-3 0  9991,2 49766  53.2152 164.1653 0001961  88.2808 271.8409 15.08860830 77452,6917.817,95.436,541.038,538.325,0.0
49766.0,STARLINK-3190,PAYLOAD,2023-04-27 09:35:07,15.08841211,0.0001592,53.2166,160.5965,60.8169,299.2983,0.00028605,4.268e-05,0.0,0 STARLINK-3190,1 49766U 21115AU  23117.39938993  .00004268  00000-0  28605-3 0  9993,2 49766  53.2166 160.5965 0001592  60.8169 299.2983 15.08841211 77575,6917.877,95.437,540.843,538.64,0.0
49766.0,STARLINK-3190,PAYLOAD,2023-04-27 14:21:16,15.08850093,0.0001585,53.2159,159.7034,63.8954,296.2201,0.00038482,5.843e-05,0.0,0 STARLINK-3190,1 49766U 21115AU  23117.59810873  .00005843  00000-0  38482-3 0  9995,2 49766  53.2159 159.7034 0001585  63.8954 296.2201 15.08850093 78716,6917.85,95.437,540.811,538.618,0.0
49766.0,STARLINK-3190,PAYLOAD,2023-04-28 06:15:07,15.08845609,0.0001668,53.2152,156.7247,102.8605,257.2574,0.00011777,1.587e-05,0.0,0 STARLINK-3190,1 49766U 21115AU  23118.26050792  .00001587  00000-0  11777-3 0  9995,2 49766  53.2152 156.7247 0001668 102.8605 257.2574 15.08845609 78819,6917.863,95.437,540.882,538.574,0.0
49766.0,STARLINK-3190,PAYLOAD,2023-04-28 09:25:54,15.08847087,0.0001499,53.2152,156.1364,67.6741,292.441,0.00016949,2.411e-05,0.0,0 STARLINK-3190,1 49766U 21115AU  23118.39298929  .00002411  00000-0  16949-3 0  9998,2 49766  53.2152 156.1364 0001499  67.6741 292.4410 15.08847087 77725,6917.859,95.437,540.761,538.687,0.0
49766.0,STARLINK-3190,PAYLOAD,2023-04-28 18:58:13,15.08835732,0.000206,53.216,154.3487,74.8293,285.2927,-9.9892e-05,-1.878e-05,0.0,0 STARLINK-3190,1 49766U 21115AU  23118.79043302 -.00001878  00000-0 -99892-4 0  9992,2 49766  53.2160 154.3487 0002060  74.8293 285.2927 15.08835732 78893,6917.893,95.438,541.184,538.333,0.0
49766.0,STARLINK-3190,PAYLOAD,2023-04-29 09:16:41,15.0883846,0.0001531,53.2157,151.6754,67.7097,292.4057,-3.0646e-05,-7.76e-06,0.0,0 STARLINK-3190,1 49766U 21115AU  23119.38659148 -.00000776  00000-0 -30646-4 0  9997,2 49766  53.2157 151.6754 0001531  67.7097 292.4057 15.08838460 77873,6917.885,95.438,540.809,538.691,0.0
49766.0,STARLINK-3190,PAYLOAD,2023-04-30 12:18:15,15.08840392,0.000144,53.2153,146.6195,73.9009,286.2141,0.00021345,3.111e-05,0.0,0 STARLINK-3190,1 49766U 21115AU  23120.51267502  .00003111  00000-0  21345-3 0  9992,2 49766  53.2153 146.6195 0001440  73.9009 286.2141 15.08840392 79158,6917.879,95.438,540.74,538.748,0.0
49766.0,STARLINK-3190,PAYLOAD,2023-05-01 05:47:29,15.08835721,0.0001524,53.2155,143.3492,72.3878,287.728,8.4729e-05,1.061e-05,0.0,0 STARLINK-3190,1 49766U 21115AU  23121.24131906  .00001061  00000-0  84729-4 0  9999,2 49766  53.2155 143.3492 0001524  72.3878 287.7280 15.08835721 79266,6917.893,95.438,540.813,538.704,0.0
49766.0,STARLINK-3190,PAYLOAD,2023-05-01 10:33:39,15.08837537,0.0001592,53.2156,142.4568,70.7699,289.3465,0.00012613,1.72e-05,0.0,0 STARLINK-3190,1 49766U 21115AU  23121.44003964  .00001720  00000-0  12613-3 0  9997,2 49766  53.2156 142.4568 0001592  70.7699 289.3465 15.08837537 78189,6917.888,95.438,540.854,538.652,0.0
49766.0,STARLINK-3190,PAYLOAD,2023-05-01 13:44:25,15.0883895,0.0001461,53.2156,141.861,80.8073,279.3085,0.00013632,1.882e-05,0.0,0 STARLINK-3190,1 49766U 21115AU  23121.57251906  .00001882  00000-0  13632-3 0  9993,2 49766  53.2156 141.8610 0001461  80.8073 279.3085 15.08838950 78203,6917.884,95.438,540.759,538.738,0.0
49766.0,STARLINK-3190,PAYLOAD,2023-05-02 07:13:39,15.08845998,0.0001387,53.2151,138.5902,85.0933,275.0218,0.00019337,2.791e-05,0.0,0 STARLINK-3190,1 49766U 21115AU  23122.30115589  .00002791  00000-0  19337-3 0  9999,2 49766  53.2151 138.5902 0001387  85.0933 275.0218 15.08845998 79420,6917.862,95.437,540.687,538.768,0.0
49766.0,STARLINK-3190,PAYLOAD,2023-05-02 08:49:03,15.08846496,0.0001528,53.2155,138.2938,73.6104,286.5056,0.00018143,2.601e-05,0.0,0 STARLINK-3190,1 49766U 21115AU  23122.36739634  .00002601  00000-0  18143-3 0  9992,2 49766  53.2155 138.2938 0001528  73.6104 286.5056 15.08846496 78329,6917.861,95.437,540.783,538.668,0.0
49766.0,STARLINK-3190,PAYLOAD,2023-05-02 13:35:12,15.08847581,0.0001398,53.2151,137.4008,83.293,276.8221,0.00020136,2.919e-05,0.0,0 STARLINK-3190,1 49766U 21115AU  23122.56611478  .00002919  00000-0  20136-3 0  9996,2 49766  53.2151 137.4008 0001398  83.2930 276.8221 15.08847581 78358,6917.857,95.437,540.689,538.755,0.0
49766.0,STARLINK-3190,PAYLOAD,2023-05-03 05:29:03,15.08840988,0.000141,53.2151,134.4276,83.8597,276.2556,0.00010536,1.389e-05,0.0,0 STARLINK-3190,1 49766U 21115AU  23123.22851825  .00001389  00000-0  10536-3 0  9995,2 49766  53.2151 134.4276 0001410  83.8597 276.2556 15.08840988 79565,6917.877,95.437,540.718,538.767,0.0
49766.0,STARLINK-3190,PAYLOAD,2023-05-03 11:50:36,15.08844016,0.0001436,53.2148,133.2382,77.9985,282.1168,0.00013234,1.819e-05,0.0,0 STARLINK-3190,1 49766U 21115AU  23123.49347687  .00001819  00000-0  13234-3 0  9996,2 49766  53.2148 133.2382 0001436  77.9985 282.1168 15.08844016 78491,6917.868,95.437,540.727,538.74,0.0
49766.0,STARLINK-3190,PAYLOAD,2023-05-04 05:20:44,15.07592756,0.0001218,53.2149,129.9699,132.5189,227.5905,-0.018678,-0.00276702,0.0,0 STARLINK-3190,1 49766U 21115AU  23124.22273912 -.00276702  00000-0 -18678-1 0  9999,2 49766  53.2149 129.9699 0001218 132.5189 227.5905 15.07592756 79715,6921.695,95.517,544.403,542.717,0.0
49766.0,STARLINK-3190,PAYLOAD,2023-05-04 14:00:01,15.08835009,0.0001342,53.2143,128.3461,74.7956,88.5688,-0.00045345,-7.496e-05,0.0,0 STARLINK-3190,1 49766U 21115AU  23124.58335648 -.00007496  00000-0 -45345-3 0  9998,2 49766  53.2143 128.3461 0001342  74.7956  88.5688 15.08835009  1301,6917.896,95.438,540.689,538.832,0.0
49766.0,STARLINK-3190,PAYLOAD,2023-05-04 16:00:01,15.0884624,0.0001305,53.2144,127.9714,78.1433,178.1145,-0.0020911,-0.00033419,0.0,0 STARLINK-3190,1 49766U 21115AU  23124.66668981 -.00033419  00000-0 -20911-2 0  9991,2 49766  53.2144 127.9714 0001305  78.1433 178.1145 15.08846240 79774,6917.861,95.437,540.629,538.824,0.0
49766.0,STARLINK-3190,PAYLOAD,2023-05-05 06:46:00,15.08842267,0.0001385,53.2161,125.209,86.3191,273.796,7.1899e-05,8.57e-06,0.0,0 STARLINK-3190,1 49766U 21115AU  23125.28195600  .00000857  00000-0  71899-4 0  9994,2 49766  53.2161 125.2090 0001385  86.3191 273.7960 15.08842267 79874,6917.873,95.437,540.697,538.78,0.0
49766.0,STARLINK-3190,PAYLOAD,2023-05-05 09:56:47,15.08842085,0.0001379,53.2161,124.6145,86.1233,273.9917,6.7725e-05,7.9e-06,0.0,0 STARLINK-3190,1 49766U 21115AU  23125.41443601  .00000790  00000-0  67725-4 0  9995,2 49766  53.2161 124.6145 0001379  86.1233 273.9917 15.08842085 78787,6917.874,95.437,540.693,538.785,0.0
49766.0,STARLINK-3190,PAYLOAD,2023-05-06 00:15:15,15.08836037,0.0001349,53.216,121.9383,85.3803,274.7343,5.0254e-05,5.12e-06,0.0,0 STARLINK-3190,1 49766U 21115AU  23126.01060151  .00000512  00000-0  50254-4 0  9998,2 49766  53.2160 121.9383 0001349  85.3803 274.7343 15.08836037 79986,6917.893,95.438,540.691,538.824,0.0
49766.0,STARLINK-3190,PAYLOAD,2023-05-06 06:36:48,15.08840991,0.0001341,53.216,120.7488,85.3743,274.7403,5.5119e-05,5.89e-06,0.0,0 STARLINK-3190,1 49766U 21115AU  23126.27555901  .00000589  00000-0  55119-4 0  9997,2 49766  53.2160 120.7488 0001341  85.3743 274.7403 15.08840991 78917,6917.877,95.437,540.67,538.815,0.0
49766.0,STARLINK-3190,PAYLOAD,2023-05-07 06:27:35,15.08845451,0.0001322,53.2156,116.2882,86.1093,274.0051,9.8899e-05,1.287e-05,0.0,0 STARLINK-3190,1 49766U 21115AU  23127.26915564  .00001287  00000-0  98899-4 0  9990,2 49766  53.2156 116.2882 0001322  86.1093 274.0051 15.08845451 80175,6917.864,95.437,540.643,538.814,0.0
49766.0,STARLINK-3190,PAYLOAD,2023-05-07 15:59:54,15.08838068,0.000131,53.2154,114.5044,85.2998,274.8144,4.042e-05,3.55e-06,0.0,0 STARLINK-3190,1 49766U 21115AU  23127.66660186  .00000355  00000-0  40420-4 0  9993,2 49766  53.2154 114.5044 0001310  85.2998 274.8144 15.08838068 80239,6917.886,95.438,540.658,538.845,0.0
49766.0,STARLINK-3190,PAYLOAD,2023-05-08 04:43:00,15.088314,0.00013,53.2164,112.1263,91.0756,269.0385,8.8133e-06,-1.48e-06,0.0,0 STARLINK-3190,1 49766U 21115AU  23128.19652920 -.00000148  00000-0  88133-5 0  9994,2 49766  53.2164 112.1263 0001300  91.0756 269.0385 15.08831400 80318,6917.907,95.438,540.671,538.872,0.0
49766.0,STARLINK-3190,PAYLOAD,2023-05-08 06:18:23,15.08831898,0.0001298,53.2164,111.829,90.6704,269.4436,1.1538e-05,-1.04e-06,0.0,0 STARLINK-3190,1 49766U 21115AU  23128.26276903 -.00000104  00000-0  11538-4 0  9991,2 49766  53.2164 111.8290 0001298  90.6704 269.4436 15.08831898 79217,6917.905,95.438,540.668,538.872,0.0
